NORAD_CAT_ID,OBJECT_NAME,OBJECT_TYPE,EPOCH,MEAN_MOTION,ECCENTRICITY,INCLINATION,RA_OF_ASC_NODE,ARG_OF_PERICENTER,MEAN_ANOMALY,BSTAR,MEAN_MOTION_DOT,MEAN_MOTION_DDOT,TLE_LINE0,TLE_LINE1,TLE_LINE2,SEMIMAJOR_AXIS,PERIOD,APOGEE,PERIGEE,DECAYED
50205.0,STARLINK-3260,PAYLOAD,2023-10-22 08:03:39,15.08838918,0.0002585,53.2153,151.8031,76.2088,283.9192,0.00023931,3.522e-05,0.0,0 STARLINK-3260,1 50205U 21125BB  23295.33586831  .00003522  00000-0  23931-3 0  9994,2 50205  53.2153 151.8031 0002585  76.2088 283.9192 15.08838918105442,6917.884,95.438,541.537,537.96,0.0
50205.0,STARLINK-3260,PAYLOAD,2023-10-22 20:46:44,15.08835295,0.0001556,53.2155,149.424,76.0252,284.0913,0.00025914,3.838e-05,0.0,0 STARLINK-3260,1 50205U 21125BB  23295.86578892  .00003838  00000-0  25914-3 0  9993,2 50205  53.2155 149.4240 0001556  76.0252 284.0913 15.08835295105995,6917.895,95.438,540.836,538.683,0.0
50205.0,STARLINK-3260,PAYLOAD,2023-10-23 20:37:31,15.08852162,0.0001603,53.2158,144.9637,71.2858,288.8308,0.00097579,0.00015281,0.0,0 STARLINK-3260,1 50205U 21125BB  23296.85939192  .00015281  00000-0  97579-3 0  9998,2 50205  53.2158 144.9637 0001603  71.2858 288.8308 15.08852162105677,6917.843,95.437,540.817,538.599,0.0
50205.0,STARLINK-3260,PAYLOAD,2023-10-24 04:34:27,15.08841669,0.0001897,53.2158,143.4766,66.1026,294.0165,0.00030801,4.618e-05,0.0,0 STARLINK-3260,1 50205U 21125BB  23297.19059217  .00004618  00000-0  30801-3 0  9994,2 50205  53.2158 143.4766 0001897  66.1026 294.0165 15.08841669105725,6917.875,95.437,541.053,538.428,0.0
50205.0,STARLINK-3260,PAYLOAD,2023-10-24 14:06:45,15.08848969,0.0001638,53.2155,141.6923,74.4045,285.7128,0.0003478,5.253e-05,0.0,0 STARLINK-3260,1 50205U 21125BB  23297.58802955  .00005253  00000-0  34780-3 0  9998,2 50205  53.2155 141.6923 0001638  74.4045 285.7128 15.08848969106258,6917.853,95.437,540.851,538.585,0.0
50205.0,STARLINK-3260,PAYLOAD,2023-10-25 13:57:32,15.08846284,0.0001553,53.2161,137.2313,82.3746,277.7422,0.00028693,4.282e-05,0.0,0 STARLINK-3260,1 50205U 21125BB  23298.58162592  .00004282  00000-0  28693-3 0  9992,2 50205  53.2161 137.2313 0001553  82.3746 277.7422 15.08846284105931,6917.861,95.437,540.801,538.652,0.0
50205.0,STARLINK-3260,PAYLOAD,2023-10-25 21:54:28,15.08847808,0.0001573,53.2159,135.744,75.9549,284.1618,0.00033672,5.076e-05,0.0,0 STARLINK-3260,1 50205U 21125BB  23298.91282482  .00005076  00000-0  33672-3 0  9995,2 50205  53.2159 135.7440 0001573  75.9549 284.1618 15.08847808106453,6917.857,95.437,540.81,538.633,0.0
50205.0,STARLINK-3260,PAYLOAD,2023-10-26 12:12:56,15.08831789,0.0001529,53.2155,133.0684,80.5028,279.6137,-0.00015553,-2.762e-05,0.0,0 STARLINK-3260,1 50205U 21125BB  23299.50899013 -.00002762  00000-0 -15553-3 0  9994,2 50205  53.2155 133.0684 0001529  80.5028 279.6137 15.08831789106079,6917.905,95.438,540.828,538.713,0.0
50205.0,STARLINK-3260,PAYLOAD,2023-10-26 13:48:20,15.08829662,0.0001527,53.2156,132.7708,80.6767,279.4398,-6.6505e-05,-1.346e-05,0.0,0 STARLINK-3260,1 50205U 21125BB  23299.57523363 -.00001346  00000-0 -66505-4 0  9994,2 50205  53.2156 132.7708 0001527  80.6767 279.4398 15.08829662106559,6917.912,95.438,540.833,538.721,0.0
50205.0,STARLINK-3260,PAYLOAD,2023-10-26 21:45:15,15.08836629,0.000146,53.2165,131.284,81.244,278.8718,1.2847e-05,-8.4e-07,0.0,0 STARLINK-3260,1 50205U 21125BB  23299.90643506 -.00000084  00000-0  12847-4 0  9990,2 50205  53.2165 131.2840 0001460  81.2440 278.8718 15.08836629106607,6917.891,95.438,540.766,538.746,0.0
50205.0,STARLINK-3260,PAYLOAD,2023-10-27 05:42:11,15.08842149,0.0001463,53.2166,129.7972,81.3841,278.7317,4.3398e-05,4.03e-06,0.0,0 STARLINK-3260,1 50205U 21125BB  23300.23763166  .00000403  00000-0  43398-4 0  9993,2 50205  53.2166 129.7972 0001463  81.3841 278.7317 15.08842149106186,6917.874,95.437,540.751,538.727,0.0
50205.0,STARLINK-3260,PAYLOAD,2023-10-27 21:36:02,15.08847392,0.0001464,53.2155,126.8235,83.3136,276.8023,0.00017459,2.492e-05,0.0,0 STARLINK-3260,1 50205U 21125BB  23300.90002658  .00002492  00000-0  17459-3 0  9997,2 50205  53.2155 126.8235 0001464  83.3136 276.8023 15.08847392106755,6917.858,95.437,540.736,538.71,0.0
50205.0,STARLINK-3260,PAYLOAD,2023-10-28 11:54:32,15.08816909,0.000144,53.2156,124.1475,95.3005,264.8152,0.00076939,0.0001197,0.0,0 STARLINK-3260,1 50205U 21125BB  23301.49620744  .00011970  00000-0  76939-3 0  9993,2 50205  53.2156 124.1475 0001440  95.3005 264.8152 15.08816909106373,6917.951,95.439,540.812,538.82,0.0
50205.0,STARLINK-3260,PAYLOAD,2023-10-28 19:51:26,15.08838731,0.0001449,53.2152,122.6601,85.3096,274.8062,0.00030011,4.491e-05,0.0,0 STARLINK-3260,1 50205U 21125BB  23301.82739370  .00004491  00000-0  30011-3 0  9997,2 50205  53.2152 122.6601 0001449  85.3096 274.8062 15.08838731106425,6917.884,95.438,540.752,538.747,0.0
50205.0,STARLINK-3260,PAYLOAD,2023-10-28 21:26:49,15.08841741,0.0001452,53.2151,122.3626,85.9899,274.1259,0.00033828,5.1e-05,0.0,0 STARLINK-3260,1 50205U 21125BB  23301.89363255  .00005100  00000-0  33828-3 0  9996,2 50205  53.2151 122.3626 0001452  85.9899 274.1259 15.08841741106908,6917.875,95.437,540.745,538.736,0.0
50205.0,STARLINK-3260,PAYLOAD,2023-10-29 11:45:17,15.08847759,0.000141,53.215,119.6857,87.2789,272.8364,0.00019309,2.787e-05,0.0,0 STARLINK-3260,1 50205U 21125BB  23302.48978880  .00002787  00000-0  19309-3 0  9994,2 50205  53.2150 119.6857 0001410  87.2789 272.8364 15.08847759106995,6917.857,95.437,540.697,538.746,0.0
50205.0,STARLINK-3260,PAYLOAD,2023-10-29 18:06:50,15.08851532,0.0001391,53.2146,118.4963,88.2962,271.8189,0.00033073,4.981e-05,0.0,0 STARLINK-3260,1 50205U 21125BB  23302.75474681  .00004981  00000-0  33073-3 0  9996,2 50205  53.2146 118.4963 0001391  88.2962 271.8189 15.08851532107031,6917.845,95.437,540.672,538.748,0.0
50205.0,STARLINK-3260,PAYLOAD,2023-10-30 11:36:04,15.08842721,0.0001487,53.2153,115.2269,91.7105,268.4057,0.00014398,2.004e-05,0.0,0 STARLINK-3260,1 50205U 21125BB  23303.48338942  .00002004  00000-0  14398-3 0  9999,2 50205  53.2153 115.2269 0001487  91.7105 268.4057 15.08842721106672,6917.872,95.437,540.766,538.708,0.0
50205.0,STARLINK-3260,PAYLOAD,2023-10-30 17:57:37,15.08839254,0.0001565,53.2154,114.0358,95.9432,264.1738,3.7206e-05,3.04e-06,0.0,0 STARLINK-3260,1 50205U 21125BB  23303.74835060  .00000304  00000-0  37206-4 0  9996,2 50205  53.2154 114.0358 0001565  95.9432 264.1738 15.08839254107188,6917.883,95.438,540.83,538.665,0.0
50205.0,STARLINK-3260,PAYLOAD,2023-10-31 11:26:52,15.08839188,0.0001443,53.2154,110.7661,85.2861,274.8296,3.6056e-05,2.86e-06,0.0,0 STARLINK-3260,1 50205U 21125BB  23304.47699232  .00000286  00000-0  36056-4 0  9997,2 50205  53.2154 110.7661 0001443  85.2861 274.8296 15.08839188106824,6917.883,95.438,540.746,538.75,0.0
50205.0,STARLINK-3260,PAYLOAD,2023-10-31 14:37:38,15.08839882,0.0001458,53.215,110.171,86.7381,273.3777,4.7901e-05,4.74e-06,0.0,0 STARLINK-3260,1 50205U 21125BB  23304.60947215  .00000474  00000-0  47901-4 0  9999,2 50205  53.2150 110.1710 0001458  86.7381 273.3777 15.08839882107312,6917.881,95.438,540.754,538.737,0.0
50205.0,STARLINK-3260,PAYLOAD,2023-10-31 17:48:24,15.08842916,0.0001423,53.2165,109.576,90.1319,269.9836,6.772e-05,7.9e-06,0.0,0 STARLINK-3260,1 50205U 21125BB  23304.74195067  .00000790  00000-0  67720-4 0  9996,2 50205  53.2165 109.5760 0001423  90.1319 269.9836 15.08842916107338,6917.871,95.437,540.721,538.752,0.0
50205.0,STARLINK-3260,PAYLOAD,2023-11-01 14:28:24,15.0886592,0.0001682,53.2168,105.7098,83.0806,277.0377,-0.00069352,-0.00011316,0.0,0 STARLINK-3260,1 50205U 21125BB  23305.60305694 -.00011316  00000-0 -69352-3 0  9991,2 50205  53.2168 105.7098 0001682  83.0806 277.0377 15.08865920107466,6917.801,95.436,540.83,538.503,0.0
50205.0,STARLINK-3260,PAYLOAD,2023-11-01 20:49:57,15.08845882,0.0001398,53.2166,104.5207,91.455,268.6602,0.00020257,2.938e-05,0.0,0 STARLINK-3260,1 50205U 21125BB  23305.86802994  .00002938  00000-0  20257-3 0  9993,2 50205  53.2166 104.5207 0001398  91.4550 268.6602 15.08845882107031,6917.862,95.437,540.695,538.76,0.0
50205.0,STARLINK-3260,PAYLOAD,2023-11-02 09:33:03,15.08839768,0.0001548,53.2172,102.1412,89.1333,270.9837,0.00011951,1.615e-05,0.0,0 STARLINK-3260,1 50205U 21125BB  23306.39795383  .00001615  00000-0  11951-3 0  9997,2 50205  53.2172 102.1412 0001548  89.1333 270.9837 15.08839768107111,6917.881,95.438,540.817,538.675,0.0
50205.0,STARLINK-3260,PAYLOAD,2023-11-02 14:19:12,15.08841432,0.000143,53.2174,101.2497,92.5815,267.5341,0.00010001,1.304e-05,0.0,0 STARLINK-3260,1 50205U 21125BB  23306.59667234  .00001304  00000-0  10001-3 0  9992,2 50205  53.2174 101.2497 0001430  92.5815 267.5341 15.08841432107617,6917.876,95.437,540.73,538.752,0.0
50205.0,STARLINK-3260,PAYLOAD,2023-11-02 17:29:58,15.08843942,0.0001294,53.217,100.6559,91.2349,268.8791,0.00013253,1.822e-05,0.0,0 STARLINK-3260,1 50205U 21125BB  23306.72915093  .00001822  00000-0  13253-3 0  9993,2 50205  53.2170 100.6559 0001294  91.2349 268.8791 15.08843942107634,6917.868,95.437,540.629,538.838,0.0
50205.0,STARLINK-3260,PAYLOAD,2023-11-03 10:59:13,15.08833671,0.0001338,53.2165,97.3835,84.1419,275.9726,-8.0181e-05,-1.564e-05,0.0,0 STARLINK-3260,1 50205U 21125BB  23307.45779590 -.00001564  00000-0 -80181-4 0  9994,2 50205  53.2165  97.3835 0001338  84.1419 275.9726 15.08833671107270,6917.9,95.438,540.69,538.839,0.0
50205.0,STARLINK-3260,PAYLOAD,2023-11-03 14:09:59,15.0883905,0.0001376,53.218,96.7892,92.91,267.205,-5.0431e-05,-1.09e-05,0.0,0 STARLINK-3260,1 50205U 21125BB  23307.59027306 -.00001090  00000-0 -50431-4 0  9999,2 50205  53.2180  96.7892 0001376  92.9100 267.2050 15.08839050107764,6917.883,95.438,540.7,538.796,0.0
50205.0,STARLINK-3260,PAYLOAD,2023-11-03 20:31:31,15.08846445,0.0001299,53.2171,95.6006,85.5594,274.5546,0.00011785,1.588e-05,0.0,0 STARLINK-3260,1 50205U 21125BB  23307.85522978  .00001588  00000-0  11785-3 0  9991,2 50205  53.2171  95.6006 0001299  85.5594 274.5546 15.08846445107338,6917.861,95.437,540.624,538.827,0.0
